{"type":"FeatureCollection","features":[{"type":"Feature","properties":{"name":"Rom\u00e2nia"},"geometry":{"type":"Polygon","coordinates":[[[22.877601,47.946739],[22.939302,48.00565],[23.063119,48.007458],[23.231377,48.079728],[23.374728,47.99056],[23.396019,47.993067],[23.499371,47.986219],[23.646132,47.996606],[23.855215,47.934233],[24.094787,47.937928],[24.297876,47.919789],[24.542098,47.943819],[24.655993,47.879301],[24.808232,47.79574],[24.94238,47.715563],[25.218956,47.878474],[25.918087,47.968158],[26.18267,48.003273],[26.286953,48.124712],[26.347311,48.212097],[26.617889,48.258968],[26.744031,48.255583],[26.897665,48.208971],[26.950582,48.197524],[26.966602,48.149594],[27.042773,48.127296],[27.041739,48.077273],[27.090005,48.015623],[27.143748,47.986839],[27.171964,47.946429],[27.194185,47.904054],[27.234906,47.840208],[27.256196,47.77755],[27.29113,47.74241],[27.304049,47.666549],[27.435824,47.55994],[27.456908,47.533896],[27.497525,47.482426],[27.563154,47.468344],[27.562534,47.416538],[27.624029,47.321428],[27.697823,47.287502],[27.788309,47.204277],[27.794665,47.155831],[27.85771,47.109322],[27.96313,47.043383],[28.069067,46.988503],[28.11356,46.894761],[28.121518,46.8343],[28.245085,46.631451],[28.234121,46.553129],[28.2381,46.475588],[28.240219,46.420268],[28.212934,46.388694],[28.192883,46.311231],[28.135212,46.269322],[28.110976,46.225603],[28.127358,46.135325],[28.090461,46.06799],[28.110511,45.950426],[28.118779,45.903142],[28.114955,45.859734],[28.163738,45.661503],[28.091184,45.615976],[28.161567,45.532726],[28.212934,45.450198],[28.310809,45.347827],[28.577046,45.248092],[28.774295,45.253363],[28.788609,45.307106],[28.893616,45.29982],[28.96648,45.319871],[29.110295,45.369066],[29.183107,45.398987],[29.281809,45.422293],[29.332969,45.442137],[29.628145,45.360798],[29.666488,45.230625],[29.638845,45.195624],[29.656261,45.028957],[29.623871,44.929104],[29.593761,44.844306],[29.520518,44.822496],[29.026378,44.714667],[28.997325,44.751614],[29.144705,44.826646],[29.10377,44.840277],[29.041759,44.925686],[29.045177,45.004828],[28.960216,44.987698],[28.863536,44.922309],[28.865489,44.89468],[28.952403,44.826646],[28.938731,44.798774],[28.923839,44.757799],[28.78712,44.693305],[28.784028,44.649237],[28.897716,44.716783],[28.938731,44.634263],[28.959972,44.681952],[28.909434,44.675198],[28.774181,44.600775],[28.753673,44.613756],[28.748057,44.577786],[28.761078,44.560207],[28.758474,44.465277],[28.838145,44.554023],[28.924978,44.620551],[28.6963,44.358344],[28.635102,44.316392],[28.668142,44.184312],[28.63087,44.154486],[28.660004,43.979804],[28.593516,43.819525],[28.581879,43.761705],[27.98101,43.84934],[27.721698,43.94874],[27.383837,44.015092],[27.269012,44.112399],[27.027476,44.177046],[26.697212,44.106094],[26.332335,44.054926],[26.061644,43.949773],[25.839332,43.788439],[25.671384,43.717359],[25.556558,43.670359],[25.403131,43.65005],[25.211308,43.711881],[24.500137,43.799498],[24.159383,43.752938],[23.620854,43.83401],[23.161924,43.857324],[22.851039,43.874352],[22.966277,44.015557],[22.988085,44.107025],[22.689498,44.291716],[22.522687,44.37507],[22.480002,44.455789],[22.500363,44.50638],[22.580461,44.565498],[22.719367,44.544362],[22.621182,44.637432],[22.426052,44.733653],[22.299031,44.661668],[22.086951,44.52178],[22.036174,44.589489],[21.871977,44.695981],[21.65628,44.687661],[21.558405,44.78166],[21.3598,44.826657],[21.453398,44.869562],[21.51634,44.933899],[21.387046,44.981545],[21.363378,45.01653],[21.425596,45.043247],[21.444406,45.08526],[21.48151,45.111563],[21.433761,45.188819],[21.189745,45.259564],[21.09156,45.288089],[20.966193,45.341575],[20.781604,45.472574],[20.787392,45.553655],[20.779951,45.671684],[20.765171,45.766768],[20.700059,45.735401],[20.642285,45.798343],[20.572108,45.887691],[20.410258,45.955594],[20.242826,46.108091],[20.578103,46.137547],[20.698819,46.15646],[20.727137,46.187725],[20.739333,46.237489],[20.848991,46.267771],[20.924438,46.259555],[21.013942,46.24307],[21.144476,46.283739],[21.21517,46.402905],[21.261679,46.513338],[21.337643,46.620411],[21.436241,46.673741],[21.475206,46.737846],[21.48151,46.764976],[21.591788,46.860707],[21.594371,46.910006],[21.661757,47.006072],[21.671886,47.054726],[21.77989,47.140741],[21.823298,47.203321],[21.862159,47.297424],[22.000238,47.427184],[22.148549,47.579345],[22.16984,47.608775],[22.215212,47.679933],[22.309366,47.735046],[22.423675,47.782563],[22.666967,47.78879],[22.760295,47.838916],[22.819723,47.892323],[22.877601,47.946739]]]}}]}